[
    {
        "CCSDS_OMM_VERS": "3.0",
        "COMMENT": "GENERATED VIA SPACE-TRACK.ORG API",
        "CREATION_DATE": "2025-05-04T02:26:54",
        "ORIGINATOR": "18 SPCS",
        "OBJECT_NAME": "BEIDOU 3 G2",
        "OBJECT_ID": "2020-017A",
        "CENTER_NAME": "EARTH",
        "REF_FRAME": "TEME",
        "TIME_SYSTEM": "UTC",
        "MEAN_ELEMENT_THEORY": "SGP4",
        "EPOCH": "2025-05-03T21:36:11.022912",
        "MEAN_MOTION": "1.00271350",
        "ECCENTRICITY": "0.00025280",
        "INCLINATION": "2.7991",
        "RA_OF_ASC_NODE": "39.5015",
        "ARG_OF_PERICENTER": "342.4067",
        "MEAN_ANOMALY": "244.2027",
        "EPHEMERIS_TYPE": "0",
        "CLASSIFICATION_TYPE": "U",
        "NORAD_CAT_ID": "45344",
        "ELEMENT_SET_NO": "999",
        "REV_AT_EPOCH": "1915",
        "BSTAR": "0.00000000000000",
        "MEAN_MOTION_DOT": "-0.00000151",
        "MEAN_MOTION_DDOT": "0.0000000000000",
        "SEMIMAJOR_AXIS": "42164.854",
        "PERIOD": "1436.103",
        "APOAPSIS": "35797.378",
        "PERIAPSIS": "35776.060",
        "OBJECT_TYPE": "PAYLOAD",
        "RCS_SIZE": "LARGE",
        "COUNTRY_CODE": "PRC",
        "LAUNCH_DATE": "2020-03-09",
        "SITE": "XSC",
        "DECAY_DATE": null,
        "FILE": "4718307",
        "GP_ID": "286800645",
        "TLE_LINE0": "0 BEIDOU 3 G2",
        "TLE_LINE1": "1 45344U 20017A   25123.90012758 -.00000151  00000-0  00000-0 0  9993",
        "TLE_LINE2": "2 45344   2.7991  39.5015 0002528 342.4067 244.2027  1.00271350 19152"
    }
]